NOAA 2 (ITOS-D)
1 06235U 72082A   25069.87571270 -.00000013  00000-0  21037-3 0  9995
2 06235 102.0253  78.0000 0003846 337.5006  86.2839 12.53196839396912
SOLRAD-7B
1  1291U 65016D   25070.17382924  .00000056  00000-0  80675-4 0  9992
2  1291  70.0787 140.5855 0020680   1.2574 358.8579 13.94890819 52629
OSCAR-7 (AO-7)
1  7530U 74089B   25069.98667245 -.00000020  00000-0  16901-3 0  9995
2  7530 101.9950  73.2815 0011884 295.6613  88.7063 12.53686993302719
UOSAT-2 (UO-11)
1 14781U 84021B   25069.89173637  .00002760  00000-0  30001-3 0  9994
2 14781  97.7436  38.1386 0006100 279.3478  80.7049 14.88867137188148
FLTSATCOM-7 (USA-20)
1 17181U 86096A   25070.12266906 -.00000235  00000-0  00000+0 0  9993
2 17181  13.0783 343.0170 0041639 319.9028 261.0487  0.98930845147337
FLTSATCOM-8 (USA-46)
1 20253U 89077A   25069.87976566 -.00000378  00000-0  00000-0 0  9998
2 20253  12.5529 353.9377 0007055 338.7434 278.2754  1.00261822255913
OSCAR 16 (PACSAT)
1 20439U 90005D   25070.09096028  .00000341  00000-0  13969-3 0  9999
2 20439  98.8964  88.7159 0011275 145.1873 251.6021 14.33703942835826
LUSAT (LO-19)
1 20442U 90005G   25069.88449790  .00000346  00000-0  14105-3 0  9994
2 20442  98.9000  73.4774 0012597 121.7040 238.5374 14.33883563835991
UFO 2 (USA 95)
1 22787U 93056A   25069.06225556  .00000114  00000-0  00000-0 0  9998
2 22787  11.7384   6.0109 0004087 355.8387 217.1659  1.00270972113897
EYESAT-1 (AO-27)
1 22825U 93061C   25069.65607057  .00000228  00000-0  10433-3 0  9992
2 22825  98.7487 130.7136 0008759  26.7512 333.4120 14.30744991640713
ITAMSAT (IO-26) 
1 22826U 93061D   25069.70095583  .00000258  00000-0  11478-3 0  9997
2 22826  98.7435 130.6354 0008957  11.1659 348.9721 14.31152381641017
UFO 3 (USA 104)
1 23132U 94035A   25069.47814074  .00000118  00000-0  00000-0 0  9999
2 23132  12.1615   8.4244 0003562 289.6180  78.7201  1.00181582127057
RADIO ROSTO (RS-15)
1 23439U 94085A   25069.89219058 -.00000025  00000-0  49184-3 0  9998
2 23439  64.8201 332.4653 0145621  92.0088 269.7519 11.27580323243668
UFO 4 (USA 108)
1 23467U 95003A   25069.63933757 -.00000034  00000-0  00000-0 0  9992
2 23467   9.6875  14.6705 0001950 322.6005 233.6396  1.00275476110304
UFO 7 (USA 127)
1 23967U 96042A   25070.19452726 -.00000268  00000-0  00000+0 0  9994
2 23967  10.6728  19.4333 0004745  94.1024  89.3365  1.00315170104856
JAS-2 (FO-29)
1 24278U 96046B   25069.73695371 -.00000004  00000-0  33107-4 0  9994
2 24278  98.5850 335.5495 0349270 217.7865 139.8282 13.53239672410486
UFO 8 (USA 138)
1 25258U 98016A   25069.88393252  .00000043  00000-0  00000-0 0  9995
2 25258  10.5703  25.3868 0007343 256.4154 259.1579  1.00390229 99211
TECHSAT-1B (GO-32)
1 25397U 98043D   25069.85929470  .00000210  00000-0  11094-3 0  9997
2 25397  98.9615  47.1287 0002347 100.2710 259.8733 14.24268624385374
ISS (ZARYA)
1 25544U 98067A   25070.19861505  .00013846  00000-0  25100-3 0  9992
2 25544  51.6366  72.3628 0006481   9.3228  86.9266 15.49889236499969
UFO 10 (USA 146)
1 25967U 99063A   25070.20669838 -.00000199  00000-0  00000+0 0  9991
2 25967   9.6525  29.5029 0004553 279.7311 271.3916  1.00270970 92693
PCSAT (NO-44)
1 26931U 01043C   25069.90052485  .00000408  00000-0  18386-3 0  9995
2 26931  67.0530   2.2802 0005718 266.3879  93.6568 14.31648393224120
PROBA-1
1 26958U 01049B   25070.20106094  .00003249  00000-0  22915-3 0  9990
2 26958  97.9425  58.9262 0056712 245.0432 114.4894 15.04450337273994
SAUDISAT-1C (SO-50)
1 27607U 02058C   25069.62243702  .00002379  00000-0  31866-3 0  9993
2 27607  64.5534 121.2131 0045788 356.3111   3.7650 14.81099323195752
CUTE-1 (CO-55)
1 27844U 03031E   25069.75405179  .00000700  00000-0  32466-3 0  9993
2 27844  98.6794  79.1921 0010887  91.4983 268.7442 14.23861997125716
CUBESAT XI-IV (CO-57)
1 27848U 03031J   25069.44958442  .00000617  00000-0  29186-3 0  9991
2 27848  98.6825  78.9653 0010734 107.3036 252.9317 14.23215896125404
MOZHAYETS-4 (RS-22)
1 27939U 03042A   25070.21649486  .00002256  00000-0  36831-3 0  9992
2 27939  98.3176 237.5464 0010593 298.0942 177.0029 14.71903833147534
UFO 11 (USA 174)
1 28117U 03057A   25069.84920647 -.00000116  00000-0  00000-0 0  9995
2 28117   8.4922  35.8513 0003353 295.7251 218.3755  1.00273187 77808
CUBESAT XI-V (CO-58)
1 28895U 05043F   25069.83145366  .00003627  00000-0  60720-3 0  9998
2 28895  98.2328 213.1562 0014242 231.5698 128.4230 14.70366280 33602
CAPE-1
1 31130U 07012P   25069.83790606  .00003618  00000-0  68070-3 0  9991
2 31130  98.3871  29.3012 0088158  76.8783 284.2238 14.62757590950551
CUTE-1.7+APD II (CO-65)
1 32785U 08021C   25069.90953113  .00008999  00000-0  67661-3 0  9993
2 32785  97.7771  40.5468 0011626 145.5867 214.6113 15.02745672915523
SEEDS-II (CO-66)
1 32791U 08021J   25069.49154744  .00018086  00000-0  97014-3 0  9990
2 32791  97.7209  47.7545 0006912 109.1452 251.0528 15.14999728916767
YUBILEINY (RS-30)
1 32953U 08025A   25070.10423738  .00000041  00000-0  22564-3 0  9996
2 32953  82.4988 283.4645 0018694 242.3754 117.5428 12.43159836762296
PRISM (HITOMI)
1 33493U 09002B   25070.19199310  .00201278  00000-0  21231-2 0  9991
2 33493  98.1540 153.0328 0002723 332.9947  27.1167 15.63572342880013
KKS-1 (KISEKI)
1 33499U 09002H   25069.87942052  .00003292  00000-0  43092-3 0  9995
2 33499  98.1248 340.7264 0008247   1.8398 358.2842 14.81074461867568
SWISSCUBE
1 35932U 09051B   25070.17053417  .00002170  00000-0  45315-3 0  9990
2 35932  98.4412 324.6870 0006166 203.0435 157.0489 14.60917334821551
BEESAT
1 35933U 09051C   25069.63054206  .00001874  00000-0  39727-3 0  9997
2 35933  98.4340 324.6493 0004360 217.9469 142.1424 14.60392044821490
ITUPSAT-1
1 35935U 09051E   25069.50466567  .00001718  00000-0  37433-3 0  9991
2 35935  98.4435 324.1349 0006509 230.9199 129.1421 14.59218328821081
PROBA-2
1 36037U 09059B   25070.11330283  .00000584  00000-0  14772-3 0  9998
2 36037  98.2360 255.2240 0012038 270.7276  89.2542 14.54452585814291
XIWANG-1 (HOPE-1)
1 36122U 09072B   25069.87407779 -.00000040  00000-0  10755-4 0  9990
2 36122 100.3378  27.6102 0007111 208.8520 151.2201 13.16420439732042
EWS-G2 (GOES-15)
1 36411U 10008A   25069.77745558  .00000021  00000-0  00000-0 0  9997
2 36411   0.0802  92.4191 0003908 188.9279 228.4957  1.00270982 54990
TISAT-1
1 36799U 10035E   25069.72172155  .00016524  00000-0  93578-3 0  9998
2 36799  98.0650 338.3138 0005688  63.7299 296.4515 15.13097794797210
HORYU-2
1 38340U 12025D   25069.81023119  .00006289  00000-0  71801-3 0  9990
2 38340  98.1678 181.8723 0008388 250.6832 109.3476 14.86423626679770
AAUSAT-3
1 39087U 13009B   25070.04367577  .00001498  00000-0  49912-3 0  9993
2 39087  98.3674 259.7749 0012115 158.8487 201.3204 14.38953970630864
STRAND-1
1 39090U 13009E   25070.07253070  .00000701  00000-0  25237-3 0  9992
2 39090  98.3818 257.1449 0008975 168.6153 191.5238 14.36682981630579
CUBEBUG-1 (CAPITAN BETO)
1 39153U 13018D   25070.10511279  .00007176  00000-0  70504-3 0  9994
2 39153  98.1019 207.7596 0012723 234.5685 125.4345 14.92414771641954
PROBA-V
1 39159U 13021A   25070.06126683  .00000185  00000-0  99382-4 0  9999
2 39159  98.3184  67.8285 0005227  58.7437 301.4254 14.23446041615222
ZACUBE-1 (TSHEPISOSAT)
1 39417U 13066B   25069.82468514  .00010254  00000-0  92139-3 0  9999
2 39417  97.7696  27.4595 0045415 358.3922   1.7145 14.95084056611348
TRITON-1
1 39427U 13066M   25070.20146165  .00005302  00000-0  68654-3 0  9992
2 39427  97.8400 346.3039 0094538 300.3425  58.8462 14.78149701605791
DELFI-N3XT
1 39428U 13066N   25069.75050187  .00011441  00000-0  12200-2 0  9995
2 39428  97.8369 348.5356 0086430 300.3154  58.9532 14.86276539605577
GOMX-1
1 39430U 13066Q   25070.13581593  .00003324  00000-0  52487-3 0  9995
2 39430  97.6972 294.3152 0135008 121.4956 239.9523 14.67015697602144
HUMSAT-D
1 39433U 13066T   25069.89861355  .00037623  00000-0  13992-2 0  9992
2 39433  97.5032  64.6073 0016754  82.7429 277.5714 15.27283800615192
VELOX-PII
1 39438U 13066Y   25069.81449623  .00006750  00000-0  70405-3 0  9999
2 39438  97.8205  18.7520 0059632  75.4863 285.2959 14.88753383608780
CUBEBUG-2 (LO-74)
1 39440U 13066AA  25069.84720955  .00007123  00000-0  74190-3 0  9995
2 39440  97.8406  15.1598 0065529 118.2769 242.5082 14.88514222607931
FUNCUBE-1 (AO-73)
1 39444U 13066AE  25069.84297790  .00014151  00000-0  11212-2 0  9999
2 39444  97.7571  31.6525 0040738 335.9396  23.9923 15.00015744609970
UWE-3
1 39446U 13066AG  25069.81921823  .00009064  00000-0  88447-3 0  9991
2 39446  97.8147  21.3772 0056831  61.1475 299.5431 14.91428237608371
UNISAT-6
1 40012U 14033C   25070.17828906  .00006555  00000-0  77365-3 0  9995
2 40012  97.7284 229.0029 0049456 151.2095 209.1865 14.84150053577383
DUCHIFAT-1
1 40021U 14033M   25069.58223285  .00025042  00000-0  10726-2 0  9996
2 40021  98.1017  76.3522 0006808 270.8436  89.2018 15.22756712584443
FUNCUBE-3 (EO-79)
1 40025U 14033R   25069.86131832  .00013544  00000-0  88126-3 0  9991
2 40025  98.0765  47.5898 0011608  16.6507 343.5098 15.08049729582956
SMAP
1 40376U 15003A   25069.90000015  .00001144  00000-0  23083-3 0  9995
2 40376  98.1308  78.5187 0001556  97.4397 262.6982 14.63316143539861
LILACSAT-2
1 40908U 15049K   25070.21449952  .00014125  00000-0  40723-3 0  9992
2 40908  97.5149  88.5209 0011861 119.7709 240.4716 15.35763697524345
LAPAN-A2 (IO-86)
1 40931U 15052B   25038.81889873  .00001817  00000-0  15548-3 0  9993
2 40931   6.0001 108.1159 0012838 187.7041 172.2889 14.78568669506492
LQSAT
1 40958U 15057A   25070.22550290  .00001283  00000-0  19372-3 0  9992
2 40958  97.6595  82.3310 0016728 340.2296  19.8264 14.75812399506983
PRATHAM
1 41783U 16059A   25070.02463265  .00001555  00000-0  28950-3 0  9999
2 41783  97.8281  82.8930 0030373 252.2573 107.5316 14.66124403451624
ALSAT-1N
1 41789U 16059G   25070.12206124  .00001752  00000-0  31231-3 0  9990
2 41789  97.8119  89.3950 0025453 225.2475 134.6660 14.68015218452032
